STARLINK-2139_new
1 18554C 21041B   21326.13228076 -.00013824  00000-0 -92640-3 0  3265
2 18554  53.0545 333.1540 0001802  44.1048  63.4886 15.06405856    17
STARLINK-2139_old
1 28554C 21041B   21325.13645289 -.00000377  00000-0 -25278-4 0  3255
2 28554  53.0543 337.6247 0001828  46.0952  58.0673 15.06405361    16
